STARLINK-31996          
1 60100U 24117K   26068.32344912  .00000690  00000+0  35447-4 0  9993
2 60100  53.1613  38.5903 0001267  87.5677 272.5469 15.30178795 96839
PHISAT 2                
1 60470U 24149C   26068.78834181  .00008925  00000+0  31421-3 0  9996
2 60470  97.3806 148.6498 0001175 168.6230 191.5037 15.29548631 86792
